[{"OBJECT_NAME":"STARLINK-3890","OBJECT_ID":"2022-049E","EPOCH":"2026-03-09T10:29:07.156032","MEAN_MOTION":15.08832427,"ECCENTRICITY":0.00013228,"INCLINATION":53.2171,"RA_OF_ASC_NODE":70.2571,"ARG_OF_PERICENTER":88.4768,"MEAN_ANOMALY":271.6376,"EPHEMERIS_TYPE":0,"CLASSIFICATION_TYPE":"U","NORAD_CAT_ID":52455,"ELEMENT_SET_NO":999,"REV_AT_EPOCH":21207,"BSTAR":-6.1410786e-5,"MEAN_MOTION_DOT":-1.265e-5,"MEAN_MOTION_DDOT":0},{"OBJECT_NAME":"CZ-4B DEB","OBJECT_ID":"2004-035J","EPOCH":"2026-03-07T20:16:16.859712","MEAN_MOTION":15.09572175,"ECCENTRICITY":0.00105031,"INCLINATION":97.5432,"RA_OF_ASC_NODE":82.067,"ARG_OF_PERICENTER":356.2804,"MEAN_ANOMALY":3.8346,"EPHEMERIS_TYPE":0,"CLASSIFICATION_TYPE":"U","NORAD_CAT_ID":29042,"ELEMENT_SET_NO":999,"REV_AT_EPOCH":69625,"BSTAR":0.00031812935,"MEAN_MOTION_DOT":5.052e-5,"MEAN_MOTION_DDOT":0}]
